start=new Date('2022-07-03T00:00:00.000Z').valueOf();
sats=[{"BSTAR":"0.00014211000000","ELEMENT_SET_NO":"999","ECCENTRICITY":"0.00018180","CENTER_NAME":"EARTH","FILE":"3506647","REV_AT_EPOCH":"10611","RA_OF_ASC_NODE":"40.3681","RCS_SIZE":"LARGE","NORAD_CAT_ID":"46064","OBJECT_NAME":"STARLINK-1583","APOAPSIS":"548.462","MEAN_MOTION_DDOT":"0.0000000000000","LAUNCH_DATE":"2020-08-07","MEAN_ELEMENT_THEORY":"SGP4","MEAN_MOTION":"15.06403489","ARG_OF_PERICENTER":"70.6933","MEAN_ANOMALY":"289.4252","TLE_LINE1":"1 46064U 20055AP  22183.39627254  .00001836  00000-0  14211-3 0  9996","OBJECT_TYPE":"PAYLOAD","PERIAPSIS":"545.944","MEAN_MOTION_DOT":"0.00001836","EPOCH":"2022-07-02T09:30:37.947456","TLE_LINE2":"2 46064  53.0553  40.3681 0001818  70.6933 289.4252 15.06403489106112","INCLINATION":"53.0553","DECAY_DATE":null,"CLASSIFICATION_TYPE":"U","REF_FRAME":"TEME","SEMIMAJOR_AXIS":"6925.338","EPHEMERIS_TYPE":"0","OBJECT_ID":"2020-055AP","TIME_SYSTEM":"UTC","SITE":"AFETR","PERIOD":"95.592","COUNTRY_CODE":"US","GP_ID":"207264266"},{"TLE_LINE1":"1 46065U 20055AQ  22183.52249307  .00000212  00000-0  33140-4 0  9991","MEAN_ANOMALY":"279.3550","ARG_OF_PERICENTER":"80.7609","MEAN_MOTION":"15.06401597","LAUNCH_DATE":"2020-08-07","MEAN_ELEMENT_THEORY":"SGP4","APOAPSIS":"548.249","MEAN_MOTION_DDOT":"0.0000000000000","NORAD_CAT_ID":"46065","OBJECT_NAME":"STARLINK-1515","RCS_SIZE":"LARGE","REV_AT_EPOCH":"10639","FILE":"3506647","RA_OF_ASC_NODE":"19.7994","CENTER_NAME":"EARTH","ELEMENT_SET_NO":"999","ECCENTRICITY":"0.00015020","BSTAR":"0.00003314000000","COUNTRY_CODE":"US","GP_ID":"207265517","PERIOD":"95.592","SITE":"AFETR","TIME_SYSTEM":"UTC","EPHEMERIS_TYPE":"0","OBJECT_ID":"2020-055AQ","SEMIMAJOR_AXIS":"6925.344","CLASSIFICATION_TYPE":"U","REF_FRAME":"TEME","DECAY_DATE":null,"INCLINATION":"53.0569","TLE_LINE2":"2 46065  53.0569  19.7994 0001502  80.7609 279.3550 15.06401597106396","MEAN_MOTION_DOT":"0.00000212","EPOCH":"2022-07-02T12:32:23.401248","PERIAPSIS":"546.168","OBJECT_TYPE":"PAYLOAD"},{"TLE_LINE2":"2 46066  53.0560  20.9793 0001506  69.3719 290.7432 15.06403890106369","EPOCH":"2022-07-02T06:16:53.580864","MEAN_MOTION_DOT":"0.00000444","PERIAPSIS":"546.159","OBJECT_TYPE":"PAYLOAD","SEMIMAJOR_AXIS":"6925.337","REF_FRAME":"TEME","CLASSIFICATION_TYPE":"U","DECAY_DATE":null,"INCLINATION":"53.0560","SITE":"AFETR","TIME_SYSTEM":"UTC","OBJECT_ID":"2020-055AR","EPHEMERIS_TYPE":"0","COUNTRY_CODE":"US","GP_ID":"207265268","PERIOD":"95.592","BSTAR":"0.00004871900000","OBJECT_NAME":"STARLINK-1525","NORAD_CAT_ID":"46066","RCS_SIZE":"LARGE","REV_AT_EPOCH":"10636","FILE":"3506647","RA_OF_ASC_NODE":"20.9793","ECCENTRICITY":"0.00015060","ELEMENT_SET_NO":"999","CENTER_NAME":"EARTH","MEAN_MOTION":"15.06403890","MEAN_ELEMENT_THEORY":"SGP4","LAUNCH_DATE":"2020-08-07","APOAPSIS":"548.245","MEAN_MOTION_DDOT":"0.0000000000000","TLE_LINE1":"1 46066U 20055AR  22183.26173126  .00000444  00000-0  48719-4 0  9993","MEAN_ANOMALY":"290.7432","ARG_OF_PERICENTER":"69.3719"},{"MEAN_MOTION_DDOT":"0.0000000000000","APOAPSIS":"548.202","MEAN_MOTION":"15.06408224","MEAN_ELEMENT_THEORY":"SGP4","LAUNCH_DATE":"2020-08-07","MEAN_ANOMALY":"285.4498","TLE_LINE1":"1 46067U 20055AS  22183.59620008  .00000330  00000-0  41042-4 0  9992","ARG_OF_PERICENTER":"74.6653","BSTAR":"0.00004104200000","FILE":"3506647","RA_OF_ASC_NODE":"19.4593","REV_AT_EPOCH":"10642","ECCENTRICITY":"0.00014630","ELEMENT_SET_NO":"999","CENTER_NAME":"EARTH","OBJECT_NAME":"STARLINK-1529","NORAD_CAT_ID":"46067","RCS_SIZE":"LARGE","OBJECT_ID":"2020-055AS","EPHEMERIS_TYPE":"0","SITE":"AFETR","TIME_SYSTEM":"UTC","GP_ID":"207264016","COUNTRY_CODE":"US","PERIOD":"95.592","OBJECT_TYPE":"PAYLOAD","MEAN_MOTION_DOT":"0.00000330","EPOCH":"2022-07-02T14:18:31.686912","TLE_LINE2":"2 46067  53.0559  19.4593 0001463  74.6653 285.4498 15.06408224106423","PERIAPSIS":"546.175","DECAY_DATE":null,"INCLINATION":"53.0559","CLASSIFICATION_TYPE":"U","REF_FRAME":"TEME","SEMIMAJOR_AXIS":"6925.323"},{"ARG_OF_PERICENTER":"66.2038","TLE_LINE1":"1 46068U 20055AT  22183.54091394  .00002322  00000-0  17469-3 0  9996","MEAN_ANOMALY":"293.9136","MEAN_ELEMENT_THEORY":"SGP4","LAUNCH_DATE":"2020-08-07","MEAN_MOTION":"15.06406066","APOAPSIS":"548.419","MEAN_MOTION_DDOT":"0.0000000000000","RCS_SIZE":"LARGE","OBJECT_NAME":"STARLINK-1532","NORAD_CAT_ID":"46068","ELEMENT_SET_NO":"999","CENTER_NAME":"EARTH","ECCENTRICITY":"0.00017670","RA_OF_ASC_NODE":"19.7073","FILE":"3506647","REV_AT_EPOCH":"10641","BSTAR":"0.00017469000000","PERIOD":"95.592","GP_ID":"207264766","COUNTRY_CODE":"US","TIME_SYSTEM":"UTC","SITE":"AFETR","OBJECT_ID":"2020-055AT","EPHEMERIS_TYPE":"0","SEMIMAJOR_AXIS":"6925.330","CLASSIFICATION_TYPE":"U","REF_FRAME":"TEME","INCLINATION":"53.0565","DECAY_DATE":null,"PERIAPSIS":"545.971","TLE_LINE2":"2 46068  53.0565  19.7073 0001767  66.2038 293.9136 15.06406066106412","MEAN_MOTION_DOT":"0.00002322","EPOCH":"2022-07-02T12:58:54.964416","OBJECT_TYPE":"PAYLOAD"},{"APOAPSIS":"548.217","MEAN_MOTION_DDOT":"0.0000000000000","MEAN_MOTION":"15.06397646","MEAN_ELEMENT_THEORY":"SGP4","LAUNCH_DATE":"2020-08-07","TLE_LINE1":"1 46069U 20055AU  22183.55661211 -.00000689  00000-0 -27371-4 0  9999","MEAN_ANOMALY":"281.5455","ARG_OF_PERICENTER":"78.5695","BSTAR":"-0.00002737100000","RA_OF_ASC_NODE":"19.6478","FILE":"3506647","REV_AT_EPOCH":"10642","CENTER_NAME":"EARTH","ELEMENT_SET_NO":"999","ECCENTRICITY":"0.00014380","OBJECT_NAME":"STARLINK-1533","NORAD_CAT_ID":"46069","RCS_SIZE":"LARGE","EPHEMERIS_TYPE":"0","OBJECT_ID":"2020-055AU","SITE":"AFETR","TIME_SYSTEM":"UTC","GP_ID":"207265018","COUNTRY_CODE":"US","PERIOD":"95.592","OBJECT_TYPE":"PAYLOAD","TLE_LINE2":"2 46069  53.0566  19.6478 0001438  78.5695 281.5455 15.06397646106423","MEAN_MOTION_DOT":"-0.00000689","EPOCH":"2022-07-02T13:21:31.286304","PERIAPSIS":"546.225","DECAY_DATE":null,"INCLINATION":"53.0566","SEMIMAJOR_AXIS":"6925.356","REF_FRAME":"TEME","CLASSIFICATION_TYPE":"U"},{"TIME_SYSTEM":"UTC","SITE":"AFETR","OBJECT_ID":"2020-055AV","EPHEMERIS_TYPE":"0","PERIOD":"95.592","GP_ID":"207271601","COUNTRY_CODE":"US","PERIAPSIS":"546.220","TLE_LINE2":"2 46070  53.0583  19.5879 0001436  93.2812 266.8341 15.06399668105886","MEAN_MOTION_DOT":"-0.00000119","EPOCH":"2022-07-02T13:42:45.042624","OBJECT_TYPE":"PAYLOAD","SEMIMAJOR_AXIS":"6925.350","CLASSIFICATION_TYPE":"U","REF_FRAME":"TEME","INCLINATION":"53.0583","DECAY_DATE":null,"LAUNCH_DATE":"2020-08-07","MEAN_ELEMENT_THEORY":"SGP4","MEAN_MOTION":"15.06399668","MEAN_MOTION_DDOT":"0.0000000000000","APOAPSIS":"548.209","ARG_OF_PERICENTER":"93.2812","TLE_LINE1":"1 46070U 20055AV  22183.57135466 -.00000119  00000-0  10885-4 0  9990","MEAN_ANOMALY":"266.8341","BSTAR":"0.00001088500000","RCS_SIZE":"LARGE","NORAD_CAT_ID":"46070","OBJECT_NAME":"STARLINK-1536","ECCENTRICITY":"0.00014360","ELEMENT_SET_NO":"999","CENTER_NAME":"EARTH","FILE":"3506687","RA_OF_ASC_NODE":"19.5879","REV_AT_EPOCH":"10588"},{"BSTAR":"-0.00007064900000","RCS_SIZE":"LARGE","NORAD_CAT_ID":"46071","OBJECT_NAME":"STARLINK-1538","ELEMENT_SET_NO":"999","CENTER_NAME":"EARTH","ECCENTRICITY":"0.00015110","RA_OF_ASC_NODE":"19.4857","FILE":"3506687","REV_AT_EPOCH":"10588","MEAN_ELEMENT_THEORY":"SGP4","LAUNCH_DATE":"2020-08-07","MEAN_MOTION":"15.06414465","MEAN_MOTION_DDOT":"0.0000000000000","APOAPSIS":"548.216","ARG_OF_PERICENTER":"72.9134","MEAN_ANOMALY":"287.2021","TLE_LINE1":"1 46071U 20055AW  22183.58977804 -.00001334  00000-0 -70649-4 0  9997","PERIAPSIS":"546.123","MEAN_MOTION_DOT":"-0.00001334","EPOCH":"2022-07-02T14:09:16.822656","TLE_LINE2":"2 46071  53.0568  19.4857 0001511  72.9134 287.2021 15.06414465105885","OBJECT_TYPE":"PAYLOAD","REF_FRAME":"TEME","CLASSIFICATION_TYPE":"U","SEMIMAJOR_AXIS":"6925.304","INCLINATION":"53.0568","DECAY_DATE":null,"TIME_SYSTEM":"UTC","SITE":"AFETR","OBJECT_ID":"2020-055AW","EPHEMERIS_TYPE":"0","PERIOD":"95.591","GP_ID":"207271592","COUNTRY_CODE":"US"},{"INCLINATION":"53.0548","DECAY_DATE":null,"SEMIMAJOR_AXIS":"6925.347","REF_FRAME":"TEME","CLASSIFICATION_TYPE":"U","OBJECT_TYPE":"PAYLOAD","PERIAPSIS":"545.968","TLE_LINE2":"2 46072  53.0548  19.6940 0001796  68.6083 291.5098 15.06400513106409","MEAN_MOTION_DOT":"-0.00001570","EPOCH":"2022-07-02T13:09:32.211936","PERIOD":"95.592","COUNTRY_CODE":"US","GP_ID":"207264267","EPHEMERIS_TYPE":"0","OBJECT_ID":"2020-055AX","TIME_SYSTEM":"UTC","SITE":"AFETR","ELEMENT_SET_NO":"999","ECCENTRICITY":"0.00017960","CENTER_NAME":"EARTH","REV_AT_EPOCH":"10640","FILE":"3506647","RA_OF_ASC_NODE":"19.6940","RCS_SIZE":"LARGE","OBJECT_NAME":"STARLINK-1539","NORAD_CAT_ID":"46072","BSTAR":"-0.00008651600000","ARG_OF_PERICENTER":"68.6083","TLE_LINE1":"1 46072U 20055AX  22183.54828949 -.00001570  00000-0 -86516-4 0  9991","MEAN_ANOMALY":"291.5098","MEAN_MOTION_DDOT":"0.0000000000000","APOAPSIS":"548.456","MEAN_ELEMENT_THEORY":"SGP4","LAUNCH_DATE":"2020-08-07","MEAN_MOTION":"15.06400513"},{"MEAN_MOTION_DDOT":"0.0000000000000","APOAPSIS":"548.509","MEAN_MOTION":"15.06404036","LAUNCH_DATE":"2020-08-07","MEAN_ELEMENT_THEORY":"SGP4","TLE_LINE1":"1 46073U 20055AY  22183.56398162  .00000898  00000-0  79176-4 0  9997","MEAN_ANOMALY":"289.2344","ARG_OF_PERICENTER":"70.8849","BSTAR":"0.00007917600000","REV_AT_EPOCH":"10588","FILE":"3506679","RA_OF_ASC_NODE":"19.6246","CENTER_NAME":"EARTH","ELEMENT_SET_NO":"999","ECCENTRICITY":"0.00018880","NORAD_CAT_ID":"46073","OBJECT_NAME":"STARLINK-1542","RCS_SIZE":"LARGE","EPHEMERIS_TYPE":"0","OBJECT_ID":"2020-055AY","SITE":"AFETR","TIME_SYSTEM":"UTC","COUNTRY_CODE":"US","GP_ID":"207271291","PERIOD":"95.592","OBJECT_TYPE":"PAYLOAD","TLE_LINE2":"2 46073  53.0563  19.6246 0001888  70.8849 289.2344 15.06404036105886","MEAN_MOTION_DOT":"0.00000898","EPOCH":"2022-07-02T13:32:08.011968","PERIAPSIS":"545.894","DECAY_DATE":null,"INCLINATION":"53.0563","SEMIMAJOR_AXIS":"6925.336","CLASSIFICATION_TYPE":"U","REF_FRAME":"TEME"}];
